SatCatId,ObjectName,LaunchYear,OrbitalPeriod,LaunchMass,StatusCode,Inclination,Status,UcsData,OrbitClassEstimated,LaunchSiteCountry,Owner,UseType,Purpose,LaunchVehicleClass,TLE1,TLE2,MeanMotion,Eccentricity,OrbitClass
53635,STARLINK-4587,2022,95.44,260.0,+,53.22,Active,1,LEO,USA,USA,Commercial,Communications,Falcon,1 53635U 22104AZ  24058.11613840  .00000640  00000+0  58303-4 0  9996,2 53635  53.2171 313.1181 0001210  92.9654 267.1477 15.08839173 84270,15.08839173,0.000121,LEO
53636,STARLINK-4586,2022,95.44,260.0,+,53.22,Active,1,LEO,USA,USA,Commercial,Communications,Falcon,1 53636U 22104BA  24058.10508384  .00001800  00000+0  13112-3 0  9999,2 53636  53.2185 313.0496 0001256  85.4787 274.6348 15.08841547 84276,15.08841547,0.0001256,LEO
53637,STARLINK-4396,2022,95.44,260.0,+,53.22,Active,1,LEO,USA,USA,Commercial,Communications,Falcon,1 53637U 22104BB  24058.13920851 -.00000016  00000+0  17084-4 0  9992,2 53637  53.2168 313.2542 0001384  93.6823 266.4328 15.08831268 84272,15.08831268,0.0001384,LEO
53638,STARLINK-4594,2022,95.44,260.0,+,53.22,Active,1,LEO,USA,USA,Commercial,Communications,Falcon,1 53638U 22104BC  24058.41787854  .00000977  00000+0  79507-4 0  9991,2 53638  53.2155 311.4515 0001228  88.2902 271.8231 15.08826842 84325,15.08826842,0.0001228,LEO
53639,STARLINK-4422,2022,95.44,260.0,+,53.22,Active,1,LEO,USA,USA,Commercial,Communications,Falcon,1 53639U 22104BD  24058.43260074 -.00000589  00000+0 -18910-4 0  9996,2 53639  53.2176 311.5373 0001533  99.8356 260.2810 15.08835095 84158,15.08835095,0.0001533,LEO
53640,STARLINK-4597,2022,95.44,260.0,+,53.22,Active,1,LEO,USA,USA,Commercial,Communications,Falcon,1 53640U 22104BE  24058.42891929  .00000663  00000+0  59751-4 0  9995,2 53640  53.2167 311.5157 0001438  85.5946 274.5210 15.08837561 84322,15.08837561,0.0001438,LEO
53641,STARLINK-4588,2022,95.43,260.0,+,53.22,Active,1,LEO,USA,USA,Commercial,Communications,Falcon,1 53641U 22104BF  24058.43997253  .00001093  00000+0  86746-4 0  9996,2 53641  53.2171 311.5842 0001415  79.7752 280.3400 15.08837870 84323,15.0883787,0.0001415,LEO
53648,STARLINK-4622,2022,95.92,260.0,+,97.65,Active,1,LEO,USA,USA,Commercial,Communications,Falcon,1 53648U 22105A   24058.60391893 -.00001291  00000+0 -95907-4 0  9992,2 53648  97.6526 301.0259 0005469  54.6310 305.5424 15.01255552 82055,15.01255552,0.0005469,LEO
53649,STARLINK-4386,2022,95.92,260.0,+,97.65,Active,1,LEO,USA,USA,Commercial,Communications,Falcon,1 53649U 22105B   24058.60206709  .00006580  00000+0  51621-3 0  9992,2 53649  97.6517 301.0237 0005082  54.8562 305.3138 15.01265716 82046,15.01265716,0.0005082,LEO
53650,STARLINK-4380,2022,95.92,260.0,+,97.65,Active,1,LEO,USA,USA,Commercial,Communications,Falcon,1 53650U 22105C   24058.60020992  .00003436  00000+0  27186-3 0  9998,2 53650  97.6526 301.0193 0004296  53.6419 306.5201 15.01274450 82042,15.0127445,0.0004296,LEO
53651,STARLINK-4388,2022,95.92,260.0,+,97.65,Active,1,LEO,USA,USA,Commercial,Communications,Falcon,1 53651U 22105D   24058.59836200  .00002782  00000+0  22106-3 0  9994,2 53651  97.6528 301.0163 0004288  62.5731 297.5929 15.01265823 82049,15.01265823,0.0004288,LEO
53652,STARLINK-4374,2022,95.92,260.0,+,97.65,Active,1,LEO,USA,USA,Commercial,Communications,Falcon,1 53652U 22105E   24058.59651144  .00000060  00000+0  92958-5 0  9998,2 53652  97.6534 301.0133 0004025  81.5819 278.5861 15.01261690 82043,15.0126169,0.0004025,LEO
53653,STARLINK-4390,2022,95.92,260.0,+,97.66,Active,1,LEO,USA,USA,Commercial,Communications,Falcon,1 53653U 22105F   24058.61502955  .00000687  00000+0  58068-4 0  9995,2 53653  97.6563 300.9951 0004569  79.5705 280.6034 15.01261339 82042,15.01261339,0.0004569,LEO
53654,STARLINK-4420,2022,95.92,260.0,+,97.65,Active,1,LEO,USA,USA,Commercial,Communications,Falcon,1 53654U 22105G   24058.59095303  .00000851  00000+0  70853-4 0  9996,2 53654  97.6542 301.0047 0002430  88.3559 271.7944 15.01264334 82047,15.01264334,0.000243,LEO
53655,STARLINK-4470,2022,95.92,260.0,+,97.65,Active,1,LEO,USA,USA,Commercial,Communications,Falcon,1 53655U 22105H   24058.59466552 -.00001202  00000+0 -88981-4 0  9999,2 53655  97.6547 301.0092 0003620  77.6278 282.5351 15.01249610 82046,15.0124961,0.000362,LEO
53656,STARLINK-4466,2022,95.92,260.0,+,97.65,Active,1,LEO,USA,USA,Commercial,Communications,Falcon,1 53656U 22105J   24058.58540014  .00000464  00000+0  40733-4 0  9995,2 53656  97.6552 301.0021 0002124  86.2310 273.9157 15.01256956 82045,15.01256956,0.0002124,LEO
53657,STARLINK-4469,2022,95.92,260.0,+,97.65,Active,1,LEO,USA,USA,Commercial,Communications,Falcon,1 53657U 22105K   24058.59280620  .00000074  00000+0  10324-4 0  9991,2 53657  97.6539 301.0070 0003415  85.0070 275.1544 15.01262441 82049,15.01262441,0.0003415,LEO
53658,STARLINK-4452,2022,95.92,260.0,+,97.65,Active,1,LEO,USA,USA,Commercial,Communications,Falcon,1 53658U 22105L   24058.58725037  .00001406  00000+0  11404-3 0  9996,2 53658  97.6538 301.0002 0002155  89.6717 270.4754 15.01263799 82040,15.01263799,0.0002155,LEO
53659,STARLINK-4463,2022,95.92,260.0,+,97.65,Active,1,LEO,USA,USA,Commercial,Communications,Falcon,1 53659U 22105M   24058.58935097 -.00000667  00000+0 -47363-4 0  9990,2 53659  97.6543 301.0012 0003034  78.9067 281.2498 15.01258529 82044,15.01258529,0.0003034,LEO
53660,STARLINK-4473,2022,95.92,260.0,+,97.65,Active,1,LEO,USA,USA,Commercial,Communications,Falcon,1 53660U 22105N   24058.58169675  .00000604  00000+0  51600-4 0  9991,2 53660  97.6540 300.9932 0001550  91.5570 268.5832 15.01260733 82043,15.01260733,0.000155,LEO
53661,STARLINK-4472,2022,95.92,260.0,+,97.65,Active,1,LEO,USA,USA,Commercial,Communications,Falcon,1 53661U 22105P   24058.58379116 -.00001959  00000+0 -14792-3 0  9991,2 53661  97.6550 300.9997 0001965  86.6588 273.4861 15.01261484 82041,15.01261484,0.0001965,LEO
53662,STARLINK-4357,2022,95.92,260.0,+,97.65,Active,1,LEO,USA,USA,Commercial,Communications,Falcon,1 53662U 22105Q   24058.57823942 -.00000844  00000+0 -61139-4 0  9992,2 53662  97.6548 300.9868 0002161  76.3912 283.7553 15.01261175 82041,15.01261175,0.0002161,LEO
53663,STARLINK-4457,2022,95.92,260.0,+,97.65,Active,1,LEO,USA,USA,Commercial,Communications,Falcon,1 53663U 22105R   24058.58354664  .00000704  00000+0  59420-4 0  9997,2 53663  97.6543 300.9955 0001566  90.0251 270.1153 15.01259762 82046,15.01259762,0.0001566,LEO
53664,STARLINK-4471,2022,95.92,260.0,+,97.65,Active,1,LEO,USA,USA,Commercial,Communications,Falcon,1 53664U 22105S   24058.57453216 -.00002004  00000+0 -15148-3 0  9995,2 53664  97.6547 300.9872 0001599  95.4139 264.7268 15.01255534 82048,15.01255534,0.0001599,LEO
53665,STARLINK-4334,2022,95.92,260.0,+,97.66,Active,1,LEO,USA,USA,Commercial,Communications,Falcon,1 53665U 22105T   24058.57614038  .00002600  00000+0  20689-3 0  9993,2 53665  97.6543 300.9954 0001565  94.5139 265.6264 15.01263550 82042,15.0126355,0.0001565,LEO
53666,STARLINK-4449,2022,95.92,260.0,+,97.66,Active,1,LEO,USA,USA,Commercial,Communications,Falcon,1 53666U 22105U   24058.57059112 -.00001415  00000+0 -10556-3 0  9997,2 53666  97.6545 300.9867 0002419  78.4410 281.7086 15.01257286 82040,15.01257286,0.0002419,LEO
53667,STARLINK-4406,2022,95.92,260.0,+,97.65,Active,1,LEO,USA,USA,Commercial,Communications,Falcon,1 53667U 22105V   24058.57984759 -.00000553  00000+0 -38484-4 0  9995,2 53667  97.6549 300.9899 0001806  82.5880 277.5549 15.01253906 82048,15.01253906,0.0001806,LEO
53668,STARLINK-4458,2022,95.92,260.0,+,97.65,Active,1,LEO,USA,USA,Commercial,Communications,Falcon,1 53668U 22105W   24058.57243822  .00000457  00000+0  40163-4 0  9993,2 53668  97.6558 300.9531 0001444 111.9659 248.1718 15.01260486 82044,15.01260486,0.0001444,LEO
53669,STARLINK-4464,2022,95.92,260.0,+,97.65,Active,1,LEO,USA,USA,Commercial,Communications,Falcon,1 53669U 22105X   24058.57799168 -.00000768  00000+0 -55240-4 0  9992,2 53669  97.6546 300.9796 0001774  96.8247 263.3179 15.01261488 82048,15.01261488,0.0001774,LEO
53670,STARLINK-4459,2022,95.92,260.0,+,97.66,Active,1,LEO,USA,USA,Commercial,Communications,Falcon,1 53670U 22105Y   24058.56873677 -.00000658  00000+0 -46672-4 0  9998,2 53670  97.6555 300.9786 0001570  96.2594 263.8809 15.01252013 82041,15.01252013,0.000157,LEO
53671,STARLINK-4440,2022,95.92,260.0,+,97.66,Active,1,LEO,USA,USA,Commercial,Communications,Falcon,1 53671U 22105Z   24058.56899130 -.00001370  00000+0 -10209-3 0  9999,2 53671  97.6551 300.9806 0002439  63.5309 296.6165 15.01249518 82042,15.01249518,0.0002439,LEO
53672,STARLINK-4428,2022,95.92,260.0,+,97.65,Active,1,LEO,USA,USA,Commercial,Communications,Falcon,1 53672U 22105AA  24058.56713309  .00000084  00000+0  11165-4 0  9995,2 53672  97.6553 300.9735 0001947  83.4376 276.7069 15.01249433 82042,15.01249433,0.0001947,LEO
53673,STARLINK-4456,2022,95.97,260.0,+,97.66,Active,1,LEO,USA,USA,Commercial,Communications,Falcon,1 53673U 22105AB  24058.62782330 -.00000262  00000+0 -16174-4 0  9998,2 53673  97.6563 301.1257 0002048  80.5753 279.5702 15.00448117 82051,15.00448117,0.0002048,LEO
53674,STARLINK-4620,2022,95.92,260.0,+,97.66,Active,1,LEO,USA,USA,Commercial,Communications,Falcon,1 53674U 22105AC  24058.62983319 -.00000636  00000+0 -44917-4 0  9990,2 53674  97.6563 301.0416 0001689  82.2772 277.8644 15.01260341 82056,15.01260341,0.0001689,LEO
53675,STARLINK-4617,2022,95.92,260.0,+,97.66,Active,1,LEO,USA,USA,Commercial,Communications,Falcon,1 53675U 22105AD  24058.62427877  .00000016  00000+0  58199-5 0  9991,2 53675  97.6586 301.0630 0002068  94.4859 265.6602 15.01259040 82056,15.0125904,0.0002068,LEO
53676,STARLINK-4621,2022,95.92,260.0,+,97.66,Active,1,LEO,USA,USA,Commercial,Communications,Falcon,1 53676U 22105AE  24058.62612697  .00000640  00000+0  54405-4 0  9996,2 53676  97.6575 301.0408 0001874  91.5098 268.6341 15.01262829 82057,15.01262829,0.0001874,LEO
